satname,norad_id,inclination_deg,eccentricity,mean_motion_rev_per_day,perigee_km,apogee_km,l1,l2
STARLINK-1527,46048,53.1624,0.0001516,15.30165795,474.278217629404,476.35618494323444,1 46048U 20055X   26097.85650317 -.00001114  00000+0 -25523-4 0  9992,2 46048  53.1624 338.4647 0001516  85.2756 274.8418 15.30165795313515
STARLINK-1540,46051,53.1597,0.0001069,15.30204849,474.4679694290935,475.9332130060957,1 46051U 20055AA  26097.68369258  .00005890  00000+0  21080-3 0  9994,2 46051  53.1597 339.1708 0001069  78.8709 281.2412 15.30204849313524
STARLINK-1541,46052,53.1603,0.0001568,15.34910344,460.1144046135714,462.2592165605711,1 46052U 20055AB  26097.83334490  .00077003  00000+0  22304-2 0  9996,2 46052  53.1603 338.4504 0001568  92.0054 104.7762 15.34910344  5909
STARLINK-1543,46053,53.1599,0.0001151,15.30204073,474.4140887790272,475.9917276258957,1 46053U 20055AC  26096.96102477  .00007178  00000+0  25422-3 0  9999,2 46053  53.1599 342.5944 0001151 101.5574 258.5556 15.30204073313406
STARLINK-1548,46054,53.1619,0.0001174,15.30200523,474.4089244864208,476.0180911856605,1 46054U 20055AD  26096.96839885 -.00000126  00000+0  78597-5 0  9990,2 46054  53.1619 342.5613 0001174  74.2671 285.8459 15.30200523313403
STARLINK-1554,46055,53.1607,0.0001166,15.30196,474.42791048045274,476.0261149682192,1 46055U 20055AE  26097.68477914  .00002195  00000+0  86232-4 0  9993,2 46055  53.1607 339.3574 0001166  76.2089 283.9042 15.30196000313510
STARLINK-1564,46058,53.1613,0.0001513,15.30194263,474.19528436091514,476.2691138805685,1 46058U 20055AH  26097.68271139  .00000877  00000+0  41749-4 0  9996,2 46058  53.1613 339.7014 0001513  77.3307 282.7863 15.30194263313500
STARLINK-1570,46059,53.1596,0.000129,15.30186062,474.37259830536823,476.140773876381,1 46059U 20055AJ  26097.84278859  .00003187  00000+0  11972-3 0  9992,2 46059  53.1596 338.5000 0001290  78.8014 281.3132 15.30186062313496
STARLINK-1572,46060,53.1613,0.0001312,15.30189026,474.34867191058765,476.1470000915542,1 46060U 20055AK  26097.85967226  .00001732  00000+0  70599-4 0  9993,2 46060  53.1613 338.6263 0001312  77.3645 282.7503 15.30189026313501
STARLINK-1573,46061,53.1577,0.0001244,15.30201163,474.3590403476992,476.06415347861184,1 46061U 20055AL  26097.69633926  .00000730  00000+0  36764-4 0  9996,2 46061  53.1577 339.1317 0001244  82.4163 277.6979 15.30201163313511
STARLINK-1577,46063,53.1615,0.0001214,15.30183499,474.4323359512091,476.09634179628847,1 46063U 20055AN  26097.85330239 -.00002074  00000+0 -57965-4 0  9998,2 46063  53.1615 338.3741 0001214 105.4035 254.7100 15.30183499313534
STARLINK-1583,46064,53.1594,0.0001372,15.30193518,474.2941410119429,476.1747061305696,1 46064U 20055AP  26097.69318423  .00003703  00000+0  13711-3 0  9990,2 46064  53.1594 339.1501 0001372  85.4254 274.6903 15.30193518313501
STARLINK-1536,46070,53.0774,0.0001465,15.15085403,519.7086135677837,521.7299784625175,1 46070U 20055AV  26097.83334490  .00021253  00000+0  11350-2 0  9991,2 46070  53.0774 325.4673 0001465 133.2097 163.3174 15.15085403  5626
STARLINK-1542,46073,53.0542,0.0001199,15.06399807,546.3818000925239,548.0424988185632,1 46073U 20055AY  26097.86902950  .00002063  00000+0  15738-3 0  9992,2 46073  53.0542 325.6279 0001199  90.6652 269.4474 15.06399807313701
STARLINK-1549,46074,53.0541,0.0001771,15.21998521,498.59502119129957,501.0311911189001,1 46074U 20055AZ  26097.83334490  .01567059  00000+0  61583-1 0  9997,2 46074  53.0541 325.2957 0001771  93.7106  48.3050 15.21998521  5824
STARLINK-1551,46075,53.1149,6.53e-05,15.20418118,504.129042897579,505.02792553981726,1 46075U 20055BA  26097.83334490  .01499911  00000+0  61971-1 0  9990,2 46075  53.1149 325.4353 0000653 154.8509 146.2606 15.20418118  5627
STARLINK-1552,46076,53.1163,0.0001937,15.20680794,502.4528387365053,505.1188956552578,1 46076U 20055BB  26097.83334490  .01502710  00000+0  61615-1 0  9998,2 46076  53.1163 325.4215 0001937  94.3757  74.2849 15.20680794  5822
STARLINK-1559,46077,53.026,0.0002778,15.3282128,465.4978655598734,469.30124567017356,1 46077U 20055BC  26097.86974476  .00058106  00000+0  18050-2 0  9996,2 46077  53.0260 297.8031 0002778 150.6082 209.5075 15.32821280314051
STARLINK-1566,46079,53.1168,0.0001551,15.20999858,501.75617096915266,503.89064488769145,1 46079U 20055BE  26097.83334490  .01480685  00000+0  60231-1 0  9990,2 46079  53.1168 325.4074 0001551  74.9745   2.5364 15.20999858  5826
STARLINK-1568,46080,53.0612,0.0004394,15.48945598,416.82231229158606,422.79634752631046,1 46080U 20055BF  26097.74662729  .00037629  00000+0  68986-3 0  9993,2 46080  53.0612 254.0657 0004394 227.1218 132.9421 15.48945598314692
STARLINK-1578,46082,53.0804,0.0001029,15.16166933,516.7285690423296,518.1476784027909,1 46082U 20055BH  26097.83334490  .00022079  00000+0  11429-2 0  9998,2 46082  53.0804 325.4510 0001029 133.5296 190.0344 15.16166933  5673
STARLINK-1579,46083,53.112,0.0002214,15.19774666,504.9967828492254,508.04530943205737,1 46083U 20055BJ  26097.83334490  .01434627  00000+0  60645-1 0  9999,2 46083  53.1120 325.4463 0002214  87.9901  46.9683 15.19774666  5828
STARLINK-1585,46117,53.0241,0.0001516,16.23755493,208.37633024712613,210.3736638846367,1 46117U 20057A   26097.88135644  .03431628  11927-4  12786-2 0  9993,2 46117  53.0241  97.0193 0001516  47.8282 312.2886 16.23755493311706
STARLINK-1593,46119,53.0371,0.0006066,15.87718703,304.6242324482391,312.7366793857582,1 46119U 20057C   26097.83334490  .00310933  00000+0  10982-2 0  9993,2 46119  53.0371 124.0466 0006066  35.1649   5.7058 15.87718703  5929
STARLINK-1621,46127,53.0379,0.0006505,15.92786408,290.1489269516851,298.8300139897683,1 46127U 20057L   26097.83334490  .00445832  88474-4  12665-2 0  9995,2 46127  53.0379  96.5687 0006505  39.6761 338.8584 15.92786408  6047
STARLINK-1622,46128,53.0207,0.0002156,15.6983193,357.92524781320753,360.8304642191215,1 46128U 20057M   26097.33669581  .00118449  00000+0  96358-3 0  9990,2 46128  53.0207  83.1253 0002156   2.4650 357.6376 15.69831930311853
STARLINK-1623,46129,53.0459,0.000353,15.59260104,387.4081552746029,392.1863168452619,1 46129U 20057N   26097.83334490  .00157334  00000+0  19337-2 0  9991,2 46129  53.0459 114.9229 0003530 343.3101 186.5863 15.59260104  5807
STARLINK-1624,46130,53.0386,0.0008543,15.77928101,330.5756637828963,342.04797103231886,1 46130U 20057P   26097.83334490  .00212416  00000+0  12014-2 0  9991,2 46130  53.0386  87.6879 0008543  67.9818 316.7275 15.77928101  5743
